[
  { "city": "Buenos Aires", "areaCode": 11, "state": "Buenos Aires" },
  { "city": "Córdoba", "areaCode": 351, "state": "Córdoba" },
  { "city": "Rosario", "areaCode": 341, "state": "Santa Fe" },
  { "city": "Mendoza", "areaCode": 261, "state": "Mendoza" },
  { "city": "San Miguel de Tucumán", "areaCode": 381, "state": "Tucumán" },
  { "city": "La Plata", "areaCode": 221, "state": "Buenos Aires" },
  { "city": "Mar del Plata", "areaCode": 223, "state": "Buenos Aires" },
  { "city": "Salta", "areaCode": 387, "state": "Salta" },
  { "city": "Santa Fe", "areaCode": 342, "state": "Santa Fe" },
  { "city": "San Juan", "areaCode": 264, "state": "San Juan" },
  { "city": "Resistencia", "areaCode": 362, "state": "Chaco" },
  {
    "city": "Santiago del Estero",
    "areaCode": 385,
    "state": "Santiago del Estero"
  },
  { "city": "Corrientes", "areaCode": 385, "state": "Corrientes" },
  { "city": "Posadas", "areaCode": 376, "state": "Misiones" },
  { "city": "San Salvador de Jujuy", "areaCode": 388, "state": "Jujuy" },
  { "city": "Bahía Blanca", "areaCode": 291, "state": "Buenos Aires" },
  { "city": "Paraná", "areaCode": 343, "state": "Entre Ríos" },
  { "city": "Neuquén", "areaCode": 299, "state": "Neuquén" },
  { "city": "Formosa", "areaCode": 3717, "state": "Formosa" },
  { "city": "San Luis", "areaCode": 2652, "state": "San Luis" },
  { "city": "La Rioja", "areaCode": 3822, "state": "La Rioja" },
  { "city": "Río Cuarto", "areaCode": 358, "state": "Córdoba" },
  { "city": "Concordia", "areaCode": 345, "state": "Entre Ríos" },
  { "city": "Comodoro Rivadavia", "areaCode": 297, "state": "Chubut" },
  {
    "city": "San Nicolás de los Arroyos",
    "areaCode": 336,
    "state": "Buenos Aires"
  },
  { "city": "Santa Rosa", "areaCode": 2954, "state": "La Pampa" },
  { "city": "San Rafael", "areaCode": 2627, "state": "Mendoza" },
  { "city": "Tandil", "areaCode": 249, "state": "Buenos Aires" },
  { "city": "Villa Mercedes", "areaCode": 2657, "state": "San Luis" },
  { "city": "San Carlos de Bariloche", "areaCode": 2944, "state": "Río Negro" },
  { "city": "Trelew", "areaCode": 280, "state": "Chubut" },
  { "city": "Villa María", "areaCode": 353, "state": "Córdoba" },
  { "city": "Reconquista", "areaCode": 3482, "state": "Santa Fe" },
  { "city": "Junín", "areaCode": 236, "state": "Buenos Aires" },
  { "city": "Zárate", "areaCode": 3487, "state": "Buenos Aires" },
  { "city": "Pergamino", "areaCode": 2477, "state": "Buenos Aires" },
  { "city": "Rafaela", "areaCode": 3492, "state": "Santa Fe" },
  { "city": "San Pedro", "areaCode": 3329, "state": "Buenos Aires" },
  { "city": "Mercedes", "areaCode": 2324, "state": "Buenos Aires" },
  { "city": "Balcarce", "areaCode": 2266, "state": "Buenos Aires" },
  { "city": "Olavarría", "areaCode": 2284, "state": "Buenos Aires" },
  { "city": "Villa Constitución", "areaCode": 3400, "state": "Santa Fe" },
  { "city": "Azul", "areaCode": 2281, "state": "Buenos Aires" },
  { "city": "Venado Tuerto", "areaCode": 3462, "state": "Santa Fe" },
  { "city": "Goya", "areaCode": 3777, "state": "Corrientes" },
  { "city": "Necochea", "areaCode": 2262, "state": "Buenos Aires" },
  { "city": "San Luis del Palmar", "areaCode": 3722, "state": "Corrientes" },
  { "city": "Villa Carlos Paz", "areaCode": 3541, "state": "Córdoba" },
  { "city": "Chivilcoy", "areaCode": 2346, "state": "Buenos Aires" },
  { "city": "Vera", "areaCode": 3483, "state": "Santa Fe" },
  { "city": "Arrecifes", "areaCode": 2478, "state": "Buenos Aires" },
  { "city": "Tres Arroyos", "areaCode": 2983, "state": "Buenos Aires" },
  { "city": "Villa Ángela", "areaCode": 3735, "state": "Chaco" },
  { "city": "Morteros", "areaCode": 3562, "state": "Córdoba" },
  { "city": "San Lorenzo", "areaCode": 3476, "state": "Santa Fe" },
  { "city": "Cañada de Gómez", "areaCode": 3471, "state": "Santa Fe" },
  { "city": "Río Tercero", "areaCode": 3571, "state": "Córdoba" },
  { "city": "Puerto Esperanza", "areaCode": 3757, "state": "Misiones" },
  { "city": "Viedma", "areaCode": 2920, "state": "Río Negro" },
  { "city": "Monte Caseros", "areaCode": 3775, "state": "Corrientes" },
  { "city": "Machagai", "areaCode": 3731, "state": "Chaco" },
  { "city": "Alta Gracia", "areaCode": 3547, "state": "Córdoba" },
  { "city": "Casilda", "areaCode": 3464, "state": "Santa Fe" },
  { "city": "Esperanza", "areaCode": 3496, "state": "Santa Fe" },
  { "city": "Villa Rumipal", "areaCode": 3546, "state": "Córdoba" },
  { "city": "Sáenz Peña", "areaCode": 3732, "state": "Chaco" },
  { "city": "San Francisco", "areaCode": 3564, "state": "Córdoba" },
  { "city": "Villa Dolores", "areaCode": 3544, "state": "Córdoba" },
  { "city": "Allen", "areaCode": 2941, "state": "Río Negro" },
  { "city": "San Antonio de Padua", "areaCode": 237, "state": "Buenos Aires" },
  { "city": "General Pico", "areaCode": 2302, "state": "La Pampa" },
  {
    "city": "Libertador General San Martín",
    "areaCode": 3772,
    "state": "Entre Ríos"
  },
  { "city": "Arroyito", "areaCode": 3576, "state": "Córdoba" },
  { "city": "Villa Nueva", "areaCode": 3572, "state": "Córdoba" },
  { "city": "Gualeguaychú", "areaCode": 3446, "state": "Entre Ríos" },
  { "city": "Bell Ville", "areaCode": 3537, "state": "Córdoba" },
  { "city": "Puerto Rico", "areaCode": 3743, "state": "Misiones" },
  { "city": "Aristóbulo del Valle", "areaCode": 3751, "state": "Misiones" },
  { "city": "Firmat", "areaCode": 3465, "state": "Santa Fe" },
  { "city": "Río Grande", "areaCode": 2964, "state": "Tierra del Fuego" },
  { "city": "Joaquín V. González", "areaCode": 3865, "state": "Salta" },
  { "city": "Oberá", "areaCode": 3755, "state": "Misiones" },
  { "city": "General Acha", "areaCode": 2952, "state": "La Pampa" },
  {
    "city": "Gobernador Ingeniero Valentín Virasoro",
    "areaCode": 3756,
    "state": "Corrientes"
  },
  { "city": "Unquillo", "areaCode": 3543, "state": "Córdoba" },
  { "city": "La Paz", "areaCode": 3437, "state": "Entre Ríos" },
  { "city": "Tartagal", "areaCode": 3873, "state": "Salta" },
  { "city": "San Ramón de la Nueva Orán", "areaCode": 3878, "state": "Salta" },
  { "city": "Gualeguay", "areaCode": 3444, "state": "Entre Ríos" },
  { "city": "Marcos Juárez", "areaCode": 3472, "state": "Córdoba" },
  { "city": "Monte Quemado", "areaCode": 3835, "state": "Santiago del Estero" },
  { "city": "Pilar", "areaCode": 2322, "state": "Buenos Aires" },
  { "city": "San Antonio de Areco", "areaCode": 2326, "state": "Buenos Aires" },
  { "city": "General Levalle", "areaCode": 3584, "state": "Córdoba" },
  { "city": "General José de San Martín", "areaCode": 3451, "state": "Chaco" },
  { "city": "San Cristóbal", "areaCode": 3493, "state": "Santa Fe" },
  { "city": "Chajari", "areaCode": 3456, "state": "Entre Ríos" },
  { "city": "Villa del Totoral", "areaCode": 3524, "state": "Córdoba" },
  { "city": "El Calafate", "areaCode": 2902, "state": "Santa Cruz" },
  { "city": "San Justo", "areaCode": 3498, "state": "Santa Fe" },
  { "city": "Chilecito", "areaCode": 3825, "state": "La Rioja" },
  { "city": "Coronel Suárez", "areaCode": 2926, "state": "Buenos Aires" },
  { "city": "Embarcación", "areaCode": 3858, "state": "Salta" },
  { "city": "General Deheza", "areaCode": 3585, "state": "Córdoba" },
  { "city": "Marcos Paz", "areaCode": 220, "state": "Buenos Aires" },
  { "city": "Santa Lucía", "areaCode": 3883, "state": "San Juan" },
  { "city": "Apóstoles", "areaCode": 3758, "state": "Misiones" },
  { "city": "San Martín de los Andes", "areaCode": 2972, "state": "Neuquén" },
  { "city": "San Antonio Oeste", "areaCode": 2934, "state": "Río Negro" },
  { "city": "Cruz del Eje", "areaCode": 3549, "state": "Córdoba" },
  { "city": "Achiras", "areaCode": 3582, "state": "Córdoba" },
  { "city": "Algarrobo del Águila", "areaCode": 2338, "state": "La Pampa" },
  { "city": "Anquincila", "areaCode": 3832, "state": "Catamarca" },
  { "city": "Arauco", "areaCode": 3827, "state": "La Rioja" },
  { "city": "Arrufó", "areaCode": 3491, "state": "Santa Fe" },
  { "city": "Arroyo Algodón", "areaCode": 3538, "state": "Córdoba" },
  { "city": "Arroyo Corto", "areaCode": 2923, "state": "Buenos Aires" },
  { "city": "Ascochinga", "areaCode": 3525, "state": "Córdoba" },
  { "city": "Augusto Vandor", "areaCode": 2226, "state": "Buenos Aires" },
  { "city": "Ayacucho", "areaCode": 2297, "state": "Buenos Aires" },
  { "city": "Banda del Río Salí", "areaCode": 386, "state": "Tucumán" },
  { "city": "Bandera", "areaCode": 3856, "state": "Santiago del Estero" },
  { "city": "Bariloche", "areaCode": 294, "state": "Río Negro" },
  { "city": "Barrancas", "areaCode": 3402, "state": "Santa Fe" },
  { "city": "Bellocq", "areaCode": 2394, "state": "Buenos Aires" },
  { "city": "Benavídez", "areaCode": 348, "state": "Buenos Aires" },
  { "city": "Bernardo Larroudé", "areaCode": 2303, "state": "La Pampa" },
  { "city": "Berón de Astrada", "areaCode": 3781, "state": "Corrientes" },
  { "city": "Beruti", "areaCode": 2392, "state": "Buenos Aires" },
  { "city": "Blanco Pozo", "areaCode": 3843, "state": "Santiago del Estero" },
  { "city": "Bonpland", "areaCode": 3765, "state": "Misiones" },
  { "city": "Bragado", "areaCode": 2342, "state": "Buenos Aires" },
  { "city": "Buena Esperanza", "areaCode": 2658, "state": "San Luis" },
  { "city": "Buena Vista", "areaCode": 3718, "state": "Formosa" },
  { "city": "Cabildo", "areaCode": 2935, "state": "Buenos Aires" },
  { "city": "Calilegua", "areaCode": 3886, "state": "Jujuy" },
  { "city": "Campana", "areaCode": 3489, "state": "Buenos Aires" },
  { "city": "Campos", "areaCode": 2268, "state": "Buenos Aires" },
  { "city": "Capilla del Monte", "areaCode": 3548, "state": "Córdoba" },
  { "city": "Carlos Pellegrini", "areaCode": 3406, "state": "Santa Fe" },
  { "city": "Carmen de Areco", "areaCode": 2273, "state": "Buenos Aires" },
  { "city": "Carro Quemado", "areaCode": 2335, "state": "La Pampa" },
  { "city": "Castelli", "areaCode": 2245, "state": "Buenos Aires" },
  { "city": "Chamical", "areaCode": 3826, "state": "La Rioja" },
  { "city": "Chichinales", "areaCode": 2946, "state": "Río Negro" },
  { "city": "Chos Malal", "areaCode": 2948, "state": "Neuquén" },
  { "city": "Colón", "areaCode": 3447, "state": "Entre Ríos" },
  { "city": "Comallo", "areaCode": 2940, "state": "Río Negro" },
  { "city": "Coronel Dorrego", "areaCode": 2921, "state": "Buenos Aires" },
  { "city": "Coronel Pringles", "areaCode": 2922, "state": "Buenos Aires" },
  { "city": "Curuzú Cuatiá", "areaCode": 3774, "state": "Corrientes" },
  { "city": "Daireaux", "areaCode": 2314, "state": "Buenos Aires" },
  { "city": "Darregueira", "areaCode": 2924, "state": "Buenos Aires" },
  { "city": "Dean Funes", "areaCode": 3521, "state": "Córdoba" },
  { "city": "Del Campillo", "areaCode": 3385, "state": "Córdoba" },
  { "city": "Eduardo Castex", "areaCode": 2334, "state": "La Pampa" },
  { "city": "El Arañado", "areaCode": 3533, "state": "Córdoba" },
  { "city": "El Galpón", "areaCode": 3877, "state": "Salta" },
  { "city": "El Hoyo", "areaCode": 2945, "state": "Chubut" },
  { "city": "El Palmar", "areaCode": 3425, "state": "Santa Fe" },
  { "city": "El Trapiche", "areaCode": 2664, "state": "San Luis" },
  {
    "city": "Exaltación de la Cruz",
    "areaCode": 2323,
    "state": "Buenos Aires"
  },
  { "city": "Federal", "areaCode": 3454, "state": "Entre Ríos" },
  { "city": "Feliciano", "areaCode": 3458, "state": "Entre Ríos" },
  { "city": "Garín", "areaCode": 3327, "state": "Buenos Aires" },
  { "city": "General Alvear", "areaCode": 2343, "state": "Buenos Aires" },
  { "city": "General Conesa", "areaCode": 2925, "state": "Río Negro" },
  { "city": "General Lavalle", "areaCode": 2252, "state": "Buenos Aires" },
  { "city": "General Pinto", "areaCode": 2356, "state": "Buenos Aires" },
  { "city": "Itatí", "areaCode": 378, "state": "Corrientes" },
  { "city": "Jocolí", "areaCode": 263, "state": "Mendoza" },
  { "city": "La Cautiva", "areaCode": 3583, "state": "Córdoba" },
  { "city": "La Cocha", "areaCode": 3868, "state": "Tucumán" },
  { "city": "La Quiaca", "areaCode": 3885, "state": "Jujuy" },
  { "city": "Laborde", "areaCode": 3468, "state": "Córdoba" },
  { "city": "Las Toninas", "areaCode": 2246, "state": "Buenos Aires" },
  { "city": "Lobería", "areaCode": 2261, "state": "Buenos Aires" },
  { "city": "Los Antiguos", "areaCode": 2963, "state": "Santa Cruz" },
  { "city": "Los Juríes", "areaCode": 3841, "state": "Santiago del Estero" },
  { "city": "Los Molles", "areaCode": 266, "state": "San Luis" },
  { "city": "Macachín", "areaCode": 2333, "state": "La Pampa" },
  { "city": "Mar de Ajó", "areaCode": 2257, "state": "Buenos Aires" },
  { "city": "Media Agua", "areaCode": 2643, "state": "San Juan" },
  { "city": "Miramar", "areaCode": 2291, "state": "Buenos Aires" },
  { "city": "Montecarlo", "areaCode": 3753, "state": "Misiones" },
  { "city": "Monteros", "areaCode": 3863, "state": "Tucumán" },
  { "city": "Navarro", "areaCode": 2272, "state": "Buenos Aires" },
  { "city": "Nogoyá", "areaCode": 3435, "state": "Entre Ríos" },
  { "city": "Oliva", "areaCode": 3532, "state": "Córdoba" },
  { "city": "Peguajó", "areaCode": 2396, "state": "Buenos Aires" },
  { "city": "Rivadavia", "areaCode": 2647, "state": "San Juan" },
  { "city": "Rosario de la Frontera", "areaCode": 3876, "state": "Salta" },
  { "city": "Saladas", "areaCode": 3776, "state": "Corrientes" },
  { "city": "San Carlos", "areaCode": 2622, "state": "Mendoza" },
  { "city": "Santa Elena", "areaCode": 3438, "state": "Entre Ríos" },
  { "city": "Santa Rosa de Río Primero", "areaCode": 3574, "state": "Córdoba" },
  { "city": "Suncho Corral", "areaCode": 3844, "state": "Santiago del Estero" },
  { "city": "Atamisqui", "areaCode": 3854, "state": "Santiago del Estero" },
  { "city": "Bermejo", "areaCode": 3643, "state": "Chaco" },
  { "city": "Brandsen", "areaCode": 2223, "state": "Buenos Aires" },
  { "city": "Cabrera", "areaCode": 3535, "state": "Córdoba" },
  { "city": "Carlos Casares", "areaCode": 2395, "state": "Buenos Aires" },
  { "city": "Chascomús", "areaCode": 2241, "state": "Buenos Aires" },
  { "city": "Chimpay", "areaCode": 2931, "state": "Río Negro" },
  { "city": "Chumbicha", "areaCode": 3833, "state": "Catamarca" },
  { "city": "Colonia Elisa", "areaCode": 364, "state": "Chaco" },
  { "city": "Cruz Alta", "areaCode": 3467, "state": "Córdoba" },
  { "city": "Fiske Menuko", "areaCode": 298, "state": "Río Negro" },
  { "city": "Gálvez", "areaCode": 3404, "state": "Santa Fe" },
  { "city": "Garuhapé", "areaCode": 3754, "state": "Misiones" },
  { "city": "General Belgrano", "areaCode": 2243, "state": "Buenos Aires" },
  {
    "city": "General Juan Madariaga",
    "areaCode": 2267,
    "state": "Buenos Aires"
  },
  { "city": "General La Madrid", "areaCode": 2286, "state": "Buenos Aires" },
  { "city": "General San Martín", "areaCode": 3704, "state": "Chaco" },
  { "city": "General Vedia", "areaCode": 3625, "state": "Chaco" },
  { "city": "Gobernador Gregores", "areaCode": 2962, "state": "Santa Cruz" },
  { "city": "Guaminí", "areaCode": 2929, "state": "Buenos Aires" },
  { "city": "Guatraché", "areaCode": 2928, "state": "La Pampa" },
  { "city": "Helvecia", "areaCode": 3405, "state": "Santa Fe" },
  { "city": "Huanguelén", "areaCode": 2927, "state": "Buenos Aires" },
  { "city": "Ibarreta", "areaCode": 3716, "state": "Formosa" },
  { "city": "Ituzaingó", "areaCode": 3786, "state": "Corrientes" },
  { "city": "Juan José Castelli", "areaCode": 3644, "state": "Chaco" },
  { "city": "La Toma", "areaCode": 2656, "state": "San Luis" },
  { "city": "Las Lomitas", "areaCode": 3715, "state": "Formosa" },
  { "city": "Libertador San Martín", "areaCode": 3443, "state": "Entre Ríos" },
  { "city": "Lobos", "areaCode": 2227, "state": "Buenos Aires" },
  { "city": "Los Sarmientos", "areaCode": 3821, "state": "Catamarca" },
  { "city": "Maciá", "areaCode": 3445, "state": "Entre Ríos" },
  { "city": "Maimará", "areaCode": 3887, "state": "Jujuy" },
  { "city": "María Susana", "areaCode": 3401, "state": "Santa Fe" },
  { "city": "Mburucuyá", "areaCode": 3773, "state": "Corrientes" },
  { "city": "Pinamar", "areaCode": 2254, "state": "Buenos Aires" },
  { "city": "Ramallo", "areaCode": 3407, "state": "Buenos Aires" },
  { "city": "Río Gallegos", "areaCode": 2966, "state": "Santa Cruz" },
  { "city": "Rojas", "areaCode": 2475, "state": "Buenos Aires" },
  { "city": "Rufino", "areaCode": 3382, "state": "Santa Fe" },
  { "city": "Salto", "areaCode": 2474, "state": "Buenos Aires" },
  { "city": "San Andrés de Giles", "areaCode": 2325, "state": "Buenos Aires" },
  { "city": "San Fernando del Valle", "areaCode": 383, "state": "Catamarca" },
  { "city": "San Genaro", "areaCode": 3474, "state": "Santa Fe" },
  { "city": "San José de la Dormida", "areaCode": 3522, "state": "Córdoba" },
  { "city": "Santa Rosa de Conlara", "areaCode": 2651, "state": "San Luis" },
  { "city": "Sauce", "areaCode": 3778, "state": "Corrientes" },
  { "city": "Ushuaia", "areaCode": 2901, "state": "Tierra del Fuego" },
  { "city": "Veinticinco de Mayo", "areaCode": 2331, "state": "Buenos Aires" },
  { "city": "Villa Gesell", "areaCode": 2255, "state": "Buenos Aires" },
  { "city": "Villa Regina", "areaCode": 2984, "state": "Río Negro" },
  { "city": "Villaguay", "areaCode": 3455, "state": "Entre Ríos" },
  { "city": "Zapala", "areaCode": 2942, "state": "Neuquén" }
]
